IRIDIUM 64 [+]          
1 25287U 98021C   17185.18004842 -.00000012  00000-0 -11248-4 0  9998
2 25287  86.3967 216.8397 0002282  92.0985 268.0473 14.34218660  7167
IRIDIUM 65 [+]          
1 25288U 98021D   17185.18638842 -.00000017  00000-0 -13155-4 0  9996
2 25288  86.3965 216.7401 0002093  86.0629 274.0806 14.34219236  7458
IRIDIUM 66 [+]          
1 25289U 98021E   17185.19273307 -.00000011  00000-0 -11039-4 0  9992
2 25289  86.3961 216.6411 0002275  89.3631 270.7825 14.34218660  7461
IRIDIUM 67 [+]          
1 25290U 98021F   17185.26884539  .00000025  00000-0  19273-5 0  9999
2 25290  86.3962 216.7458 0002313  90.7736 269.3725 14.34218900  7180
IRIDIUM 68 [+]          
1 25291U 98021G   17185.20541660 -.00000023  00000-0 -15417-4 0  9994
2 25291  86.3967 216.8910 0002203  89.5239 270.6209 14.34218731  7119
IRIDIUM 69 [-]          
1 25319U 98026A   17185.22162102  .00000087  00000-0  21945-4 0  9993
2 25319  86.3995 238.5407 0001844 143.4066 216.7259 14.38674528  5243
IRIDIUM 71 [-]          
1 25320U 98026B   17185.20698387  .00000091  00000-0  22922-4 0  9993
2 25320  86.3978 234.4293 0000718  30.6210 329.5031 14.39089977  5667
IRIDIUM 70 [+]          
1 25342U 98032A   17185.17327230  .00000023  00000-0  12443-5 0  9999
2 25342  86.3967 217.1474 0002266  87.7859 335.6264 14.34222025  1233
IRIDIUM 72 [+]          
1 25343U 98032B   17185.14833657 -.00000025  00000-0 -16014-4 0  9993
2 25343  86.3965 216.7684 0002193  87.0617 273.0830 14.34218149  1263
IRIDIUM 73 [-]          
1 25344U 98032C   17185.13071981  .00000122  00000-0  26693-4 0  9997
2 25344  86.4432 195.7830 0002487  74.3240 285.8238 14.49043123  9704
IRIDIUM 75 [+]          
1 25346U 98032E   17185.15467617 -.00000017  00000-0 -13241-4 0  9996
2 25346  86.3968 217.0185 0002236  87.0006 273.1445 14.34218453  2104
IRIDIUM 3 [+]           
1 25431U 98048A   17185.21967801  .00000101  00000-0  29085-4 0  9990
2 25431  86.3966 248.5753 0002203  90.1056 325.7992 14.34219842987781
IRIDIUM 76 [+]          
1 25432U 98048B   17185.16894774  .00000116  00000-0  34474-4 0  9997
2 25432  86.3963 248.3500 0002442  87.2415 328.8551 14.34216425988036
IRIDIUM 82 [-]          
1 25467U 98051A   17185.13829812  .00000422  00000-0  29848-4 0  9996
2 25467  86.3998  12.7823 0182131 331.3778  27.7540 14.89265157989379
IRIDIUM 81 [+]          
1 25468U 98051B   17185.14663147  .00000033  00000-0  43257-5 0  9994
2 25468  86.4224  14.7036 0002582  86.9182 273.2312 14.38615031985267
IRIDIUM 80 [+]          
1 25469U 98051C   17185.14786639 -.00000080  00000-0 -35779-4 0  9990
2 25469  86.3949  14.9981 0001748 104.3381  33.8980 14.34214549985234
IRIDIUM 77 [+]          
1 25471U 98051E   17185.10620572 -.00000089  00000-0 -35524-4 0  9999
2 25471  86.4211  14.5694 0002090  73.8675  44.3275 14.38611441990229
IRIDIUM 2 [-]           
1 25527U 98066A   17185.14634557  .00001055  00000-0  52067-4 0  9992
2 25527  85.5290  22.2422 0010638  39.9836 320.2185 15.16569370 20930
IRIDIUM 86 [+]          
1 25528U 98066B   17185.06693001 -.00000010  00000-0 -10637-4 0  9992
2 25528  86.3947 342.7376 0001987  84.9383 275.2039 14.34213833981540
IRIDIUM 84 [+]          
1 25530U 98066D   17185.02886221 -.00000029  00000-0 -17479-4 0  9990
2 25530  86.3949 342.9188 0002170  87.3439 272.8005 14.34214107979348
IRIDIUM 83 [+]          
1 25531U 98066E   17185.06057358 -.00000011  00000-0 -10860-4 0  9994
2 25531  86.3951 343.0315 0002175  89.2699 270.8746 14.34214409976487
IRIDIUM 20 [+]          
1 25577U 98074A   17185.18984618  .00000120  00000-0  35855-4 0  9994
2 25577  86.3962 248.2622 0002280  93.0485 267.0971 14.34219919156264
IRIDIUM 11 [+]          
1 25578U 98074B   17185.28537597  .00000113  00000-0  33180-4 0  9997
2 25578  86.3962 248.4239 0002239  95.1953 332.4442 14.34220053979846
IRIDIUM 14 [+]          
1 25777U 99032A   17185.17371310 -.00000030  00000-0 -17832-4 0  9996
2 25777  86.3967 216.8413 0002121  84.6395 275.5043 14.34221039957034
IRIDIUM 21 [+]          
1 25778U 99032B   17185.21176145 -.00000050  00000-0 -25081-4 0  9998
2 25778  86.3967 216.8441 0002362  87.0272 273.1194 14.34218211950474
IRIDIUM 91 [+]          
1 27372U 02005A   17185.25589025  .00000136  00000-0  41415-4 0  9995
2 27372  86.3971 280.0243 0002361  82.3940 306.1420 14.34218713814029
IRIDIUM 90 [S]          
1 27373U 02005B   17185.04198834 -.00000016  00000-0 -10879-4 0  9996
2 27373  86.4460 343.0245 0002149  85.2567 274.8879 14.42944637813711
IRIDIUM 94 [+]          
1 27374U 02005C   17185.23280579  .00000124  00000-0  37333-4 0  9998
2 27374  86.3964 248.5763 0002504  76.3499 341.8406 14.34220023818368
IRIDIUM 95 [+]          
1 27375U 02005D   17185.21868313  .00000144  00000-0  44320-4 0  9991
2 27375  86.3968 280.0630 0002991  79.5571 280.5961 14.34218571813324
IRIDIUM 96 [+]          
1 27376U 02005E   17184.35946515  .00000128  00000-0  38729-4 0  9995
2 27376  86.3995 312.4551 0003441  91.4043 268.7547 14.34216285818430
IRIDIUM 97 [+]          
1 27450U 02031A   17184.88589761  .00000100  00000-0  28560-4 0  9993
2 27450  86.3965 311.9056 0002276  99.8353 260.3100 14.34214048792579
IRIDIUM 98 [+]          
1 27451U 02031B   17185.15263310 -.00000071  00000-0 -32435-4 0  9999
2 27451  86.3943  15.0932 0001614  81.6746  48.5289 14.34214446793714
